{
  "type": "FeatureCollection",
  "features": [
    {
      "type": "Feature",
      "properties": {
        "norad_id": 66739,
        "name": "FLOCK 4H-36",
        "group": "last-30-days",
        "lat": 38.89120289882493,
        "lon": 63.172824266224524,
        "alt_km": 510.317824193422,
        "timestamp": "2025-12-23T14:49:07.964406+00:00",
        "meta_object_name": "FLOCK 4H-36",
        "meta_object_id": "2025-276CB",
        "meta_epoch": "2025-12-23T03:34:19.471872",
        "meta_mean_motion": 15.17997713,
        "meta_eccentricity": 0.00024375,
        "meta_inclination": 97.445,
        "meta_ra_of_asc_node": 68.7668,
        "meta_arg_of_pericenter": 182.9278,
        "meta_mean_anomaly": 177.1942,
        "meta_ephemeris_type": 0,
        "meta_classification_type": "U",
        "meta_norad_cat_id": 66739,
        "meta_element_set_no": 999,
        "meta_rev_at_epoch": 370,
        "meta_bstar": 0.00052977434,
        "meta_mean_motion_dot": 0.00010712,
        "meta_mean_motion_ddot": 0,
        "tle_line1": "1 66739U 25276CB  25357.14883648  .00010712  00000+0  52977-3 0  9990",
        "tle_line2": "2 66739  97.4450  68.7668 0002437 182.9278 177.1942 15.17997713  3707"
      },
      "geometry": {
        "type": "Point",
        "coordinates": [
          63.172824266224524,
          38.89120289882493
        ]
      }
    },
    {
      "type": "Feature",
      "properties": {
        "norad_id": 66740,
        "name": "TRANSPORTER-15CC",
        "group": "last-30-days",
        "lat": 12.325456474363111,
        "lon": 67.57035882609776,
        "alt_km": 515.1438027922895,
        "timestamp": "2025-12-23T14:49:07.964417+00:00",
        "meta_object_name": "TRANSPORTER-15CC",
        "meta_object_id": "2025-276CC",
        "meta_epoch": "2025-12-23T03:41:16.649952",
        "meta_mean_motion": 15.17715511,
        "meta_eccentricity": 0.00021564,
        "meta_inclination": 97.4411,
        "meta_ra_of_asc_node": 68.751,
        "meta_arg_of_pericenter": 237.2728,
        "meta_mean_anomaly": 122.8298,
        "meta_ephemeris_type": 0,
        "meta_classification_type": "U",
        "meta_norad_cat_id": 66740,
        "meta_element_set_no": 999,
        "meta_rev_at_epoch": 370,
        "meta_bstar": 0.00056975224,
        "meta_mean_motion_dot": 0.00011433,
        "meta_mean_motion_ddot": 0,
        "tle_line1": "1 66740U 25276CC  25357.15366493  .00011433  00000+0  56975-3 0  9990",
        "tle_line2": "2 66740  97.4411  68.7510 0002156 237.2728 122.8298 15.17715511  3709"
      },
      "geometry": {
        "type": "Point",
        "coordinates": [
          67.57035882609776,
          12.325456474363111
        ]
      }
    },
    {
      "type": "Feature",
      "properties": {
        "norad_id": 66741,
        "name": "TRANSPORTER-15CD",
        "group": "last-30-days",
        "lat": 6.805400947764767,
        "lon": 68.30257874092332,
        "alt_km": 515.7300489698655,
        "timestamp": "2025-12-23T14:49:07.964428+00:00",
        "meta_object_name": "TRANSPORTER-15CD",
        "meta_object_id": "2025-276CD",
        "meta_epoch": "2025-12-23T03:42:42.094368",
        "meta_mean_motion": 15.17617778,
        "meta_eccentricity": 0.00010202,
        "meta_inclination": 97.441,
        "meta_ra_of_asc_node": 68.7415,
        "meta_arg_of_pericenter": 227.7468,
        "meta_mean_anomaly": 132.368,
        "meta_ephemeris_type": 0,
        "meta_classification_type": "U",
        "meta_norad_cat_id": 66741,
        "meta_element_set_no": 999,
        "meta_rev_at_epoch": 370,
        "meta_bstar": 0.00022717484,
        "meta_mean_motion_dot": 4.502e-05,
        "meta_mean_motion_ddot": 0,
        "tle_line1": "1 66741U 25276CD  25357.15465387  .00004502  00000+0  22717-3 0  9999",
        "tle_line2": "2 66741  97.4410  68.7415 0001020 227.7468 132.3680 15.17617778  3704"
      },
      "geometry": {
        "type": "Point",
        "coordinates": [
          68.30257874092332,
          6.805400947764767
        ]
      }
    },
    {
      "type": "Feature",
      "properties": {
        "norad_id": 66742,
        "name": "TRANSPORTER-15CE",
        "group": "last-30-days",
        "lat": 15.314665509511938,
        "lon": 67.14672030787106,
        "alt_km": 514.7596614449458,
        "timestamp": "2025-12-23T14:49:07.964438+00:00",
        "meta_object_name": "TRANSPORTER-15CE",
        "meta_object_id": "2025-276CE",
        "meta_epoch": "2025-12-23T03:40:28.629696",
        "meta_mean_motion": 15.17704611,
        "meta_eccentricity": 0.00016388,
        "meta_inclination": 97.4403,
        "meta_ra_of_asc_node": 68.7413,
        "meta_arg_of_pericenter": 189.8369,
        "meta_mean_anomaly": 170.2833,
        "meta_ephemeris_type": 0,
        "meta_classification_type": "U",
        "meta_norad_cat_id": 66742,
        "meta_element_set_no": 999,
        "meta_rev_at_epoch": 370,
        "meta_bstar": 0.00051298819,
        "meta_mean_motion_dot": 0.00010283,
        "meta_mean_motion_ddot": 0,
        "tle_line1": "1 66742U 25276CE  25357.15310914  .00010283  00000+0  51299-3 0  9995",
        "tle_line2": "2 66742  97.4403  68.7413 0001638 189.8369 170.2833 15.17704611  3702"
      },
      "geometry": {
        "type": "Point",
        "coordinates": [
          67.14672030787106,
          15.314665509511938
        ]
      }
    },
    {
      "type": "Feature",
      "properties": {
        "norad_id": 66743,
        "name": "TRANSPORTER-15CF",
        "group": "last-30-days",
        "lat": -7.69214535207834,
        "lon": 70.19915964111298,
        "alt_km": 519.0792812050258,
        "timestamp": "2025-12-23T14:49:07.964449+00:00",
        "meta_object_name": "TRANSPORTER-15CF",
        "meta_object_id": "2025-276CF",
        "meta_epoch": "2025-12-23T03:46:09.718752",
        "meta_mean_motion": 15.16749182,
        "meta_eccentricity": 0.00016115,
        "meta_inclination": 97.4401,
        "meta_ra_of_asc_node": 68.7361,
        "meta_arg_of_pericenter": 34.8823,
        "meta_mean_anomaly": 325.2516,
        "meta_ephemeris_type": 0,
        "meta_classification_type": "U",
        "meta_norad_cat_id": 66743,
        "meta_element_set_no": 999,
        "meta_rev_at_epoch": 370,
        "meta_bstar": -0.0037798736,
        "meta_mean_motion_dot": -0.00073421,
        "meta_mean_motion_ddot": 0,
        "tle_line1": "1 66743U 25276CF  25357.15705693 -.00073421  00000+0 -37799-2 0  9991",
        "tle_line2": "2 66743  97.4401  68.7361 0001611  34.8823 325.2516 15.16749182  3709"
      },
      "geometry": {
        "type": "Point",
        "coordinates": [
          70.19915964111298,
          -7.69214535207834
        ]
      }
    },
    {
      "type": "Feature",
      "properties": {
        "norad_id": 66744,
        "name": "TRANSPORTER-15CG",
        "group": "last-30-days",
        "lat": 2.4721754630458728,
        "lon": 68.88308928667708,
        "alt_km": 520.7425738248321,
        "timestamp": "2025-12-23T14:49:07.964466+00:00",
        "meta_object_name": "TRANSPORTER-15CG",
        "meta_object_id": "2025-276CG",
        "meta_epoch": "2025-12-23T00:34:56.380224",
        "meta_mean_motion": 15.19817649,
        "meta_eccentricity": 0.00245723,
        "meta_inclination": 97.4248,
        "meta_ra_of_asc_node": 68.6225,
        "meta_arg_of_pericenter": 243.3371,
        "meta_mean_anomaly": 116.5347,
        "meta_ephemeris_type": 0,
        "meta_classification_type": "U",
        "meta_norad_cat_id": 66744,
        "meta_element_set_no": 999,
        "meta_rev_at_epoch": 368,
        "meta_bstar": -0.035805385,
        "meta_mean_motion_dot": -0.00722303,
        "meta_mean_motion_ddot": 0,
        "tle_line1": "1 66744U 25276CG  25357.02426366 -.00722303  00000+0 -35805-1 0  9990",
        "tle_line2": "2 66744  97.4248  68.6225 0024572 243.3371 116.5347 15.19817649  3680"
      },
      "geometry": {
        "type": "Point",
        "coordinates": [
          68.88308928667708,
          2.4721754630458728
        ]
      }
    },
    {
      "type": "Feature",
      "properties": {
        "norad_id": 66745,
        "name": "TRANSPORTER-15CH",
        "group": "last-30-days",
        "lat": -6.161003505596424,
        "lon": 70.00524373932173,
        "alt_km": 517.9273312473097,
        "timestamp": "2025-12-23T14:49:07.964487+00:00",
        "meta_object_name": "TRANSPORTER-15CH",
        "meta_object_id": "2025-276CH",
        "meta_epoch": "2025-12-23T03:46:03.963648",
        "meta_mean_motion": 15.17425195,
        "meta_eccentricity": 0.00014669,
        "meta_inclination": 97.4413,
        "meta_ra_of_asc_node": 68.7445,
        "meta_arg_of_pericenter": 238.3128,
        "meta_mean_anomaly": 121.7962,
        "meta_ephemeris_type": 0,
        "meta_classification_type": "U",
        "meta_norad_cat_id": 66745,
        "meta_element_set_no": 999,
        "meta_rev_at_epoch": 370,
        "meta_bstar": 0.00022001226,
        "meta_mean_motion_dot": 4.334e-05,
        "meta_mean_motion_ddot": 0,
        "tle_line1": "1 66745U 25276CH  25357.15699032  .00004334  00000+0  22001-3 0  9998",
        "tle_line2": "2 66745  97.4413  68.7445 0001466 238.3128 121.7962 15.17425195  3704"
      },
      "geometry": {
        "type": "Point",
        "coordinates": [
          70.00524373932173,
          -6.161003505596424
        ]
      }
    }
  ]
}